DRAGON CRS-12           
1 42904U 17045A   17251.58258524  .00007637  00000-0  12252-3 0  9999
2 42904  51.6440 342.5904 0003895 243.9211 223.8431 15.54120858  3875
DRAGON CRS-12 DEB       
1 42905U 17045B   17228.68837282 -.00003646  11527-4  00000+0 0  9990
2 42905  51.6476  96.0645 0090215  54.9421 333.7312 16.05322341   327
DRAGON CRS-12 DEB       
1 42906U 17045C   17229.55325899 -.00003653  11550-4  00000-0 0  9999
2 42906  51.6373  91.3580 0089390  58.4434 301.9627 16.06151957   460
COSMOS 2520             
1 42907U 17046A   17251.87648124  .00000123  00000-0  00000-0 0  9992
2 42907   0.0479 105.2516 0019310 206.3413  42.6094  0.99831940   263
BREEZE-M DEB [TANK]     
1 42908U 17046B   17251.94108645  .00000050  00000-0  26228-3 0  9992
2 42908  48.6087 299.9243 7230031   5.3049 359.5945  2.27391976   526
BREEZE-M R/B            
1 42909U 17046C   17252.13980466 -.00000171  00000-0  00000+0 0  9995
2 42909   0.1426  39.0647 0680200 138.0121 183.4112  0.90334194   205
1998-067MZ              
1 42910U 98067MZ  17252.44720551  .00031682  00000-0  45671-3 0  9997
2 42910  51.6392 338.0966 0007083 247.7565 112.2675 15.55688853  3554
1998-067NA              
1 42911U 98067NA  17252.57634453  .00036194  00000-0  52049-3 0  9997
2 42911  51.6410 337.4632 0006523 243.8337 116.1984 15.55691742  3558
1998-067NB              
1 42912U 98067NB  17252.70680031  .00029932  00000-0  43483-3 0  9990
2 42912  51.6377 336.8248 0006173 258.8293 101.2004 15.55515467  3596
1998-067NC              
1 42913U 98067NC  17252.83295406  .00050124  00000-0  71061-3 0  9993
2 42913  51.6394 336.1721 0005529 274.6410  85.3950 15.55936406  3576
1998-067ND              
1 42914U 98067ND  17252.57931566  .00032730  00000-0  47579-3 0  9999
2 42914  51.6404 337.4816 0005936 250.7697 109.2653 15.55452127  3548
TDRS 13                 
1 42915U 17047A   17252.34146549  .00000109  00000-0  00000-0 0  9993
2 42915   6.9985 332.5280 0003857 338.0324  10.9301  1.00267424   256
ATLAS 5 CENTAUR R/B     
1 42916U 17047B   17252.05101804 -.00000025  00000-0  00000-0 0  9995
2 42916  26.4170 327.7305 5822613 184.1825 167.1374  2.06625256   448
QZS-3                   
1 42917U 17048A   17251.32688050 -.00000362  00000-0  00000-0 0  9993
2 42917   0.0984 250.3760 0005135  27.2456 314.6706  1.00272910   244
H-2A R/B                
1 42918U 17048B   17250.49115445  .00000462  00000-0  39196-3 0  9995
2 42918  20.0330  80.8185 7236245 191.9514 130.6012  2.30534445   444
FORMOSAT-5              
1 42920U 17049A   17252.41884105  .00000347  00000-0  99346-4 0  9995
2 42920  98.2878 326.5863 0010546 180.8126 179.3047 14.50729749  2276
2017-050B               
1 42922U 17050B   17252.05618973  .00010527  00000-0  28423-3 0  9995
2 42922  24.5115 155.3307 0155945 162.7422 197.8494 15.23753879  2101
2017-050C               
1 42923U 17050C   17252.82895598  .04033436  00000-0  46362-1 0  9999
2 42923  24.6483 148.7077 0082572 177.5650 197.7211 15.53186722  2233
2017-050D               
1 42924U 17050D   17252.86906409  .01096624  00000-0  28228-1 0  9994
2 42924  24.7071 150.2734 0112586 174.5489 193.1133 15.29256129  2226
MINOTAUR DEB            
1 42927U 17050G   17252.50877131  .00007401  00000-0  18877-3 0  9992
2 42927  24.5306 152.0661 0159048 168.4362 191.9893 15.24320653  1725
IRNSS-1H & PSLV R/B     
1 42928U 17051A   17252.93089579  .00377363 -19784-5  73778-3 0  9995
2 42928  19.1728 102.6859 3249848 212.1720 326.5452  9.11010193   854
PSLV DEB                
1 42929U 17051B   17247.96551252  .02870716 -19266-5  88848-2 0  9995
2 42929  19.1409 116.1383 3199363 187.7119 333.3215  9.18782995   382
PSLV DEB                
1 42930U 17051C   17250.96232703  .02262041 -22084-5  60890-2 0  9993
2 42930  19.1785 107.5827 3119521 203.5744 323.7225  9.35599742   678
